NORAD_CAT_ID,OBJECT_NAME,OBJECT_TYPE,EPOCH,MEAN_MOTION,ECCENTRICITY,INCLINATION,RA_OF_ASC_NODE,ARG_OF_PERICENTER,MEAN_ANOMALY,BSTAR,MEAN_MOTION_DOT,MEAN_MOTION_DDOT,TLE_LINE0,TLE_LINE1,TLE_LINE2,SEMIMAJOR_AXIS,PERIOD,APOGEE,PERIGEE,DECAYED
53805.0,STARLINK-4763,PAYLOAD,2024-02-08 10:39:49,15.08835318,0.0001762,53.2186,62.1229,90.2255,269.8939,0.00012449,1.693e-05,0.0,0 STARLINK-4763,1 53805U 22111AJ  24039.44432165  .00001693  00000-0  12449-3 0  9997,2 53805  53.2186  62.1229 0001762  90.2255 269.8939 15.08835318 78440,6917.895,95.438,540.979,538.541,0.0
53805.0,STARLINK-4763,PAYLOAD,2024-02-09 07:19:49,15.08844561,0.000162,53.2174,58.2594,84.6361,275.4816,7.5987e-05,9.22e-06,0.0,0 STARLINK-4763,1 53805U 22111AJ  24040.30543786  .00000922  00000-0  75987-4 0  9997,2 53805  53.2174  58.2594 0001620  84.6361 275.4816 15.08844561 79387,6917.866,95.437,540.852,538.611,0.0
53805.0,STARLINK-4763,PAYLOAD,2024-02-10 00:49:04,15.08838161,0.0001967,53.218,54.9901,78.2357,281.8856,9.3667e-05,1.203e-05,0.0,0 STARLINK-4763,1 53805U 22111AJ  24041.03408352  .00001203  00000-0  93667-4 0  9995,2 53805  53.2180  54.9901 0001967  78.2357 281.8856 15.08838161 78683,6917.886,95.438,541.112,538.39,0.0
53805.0,STARLINK-4763,PAYLOAD,2024-02-10 07:10:37,15.088377,0.0001706,53.2179,53.7993,78.8196,281.2988,3.251e-05,2.29e-06,0.0,0 STARLINK-4763,1 53805U 22111AJ  24041.29904558  .00000229  00000-0  32510-4 0  9999,2 53805  53.2179  53.7993 0001706  78.8196 281.2988 15.08837700 79530,6917.887,95.438,540.933,538.572,0.0
53805.0,STARLINK-4763,PAYLOAD,2024-02-11 03:50:37,15.08843238,0.0001721,53.2197,49.9329,106.1386,253.9796,7.5078e-05,9.07e-06,0.0,0 STARLINK-4763,1 53805U 22111AJ  24042.16016002  .00000907  00000-0  75078-4 0  9993,2 53805  53.2197  49.9329 0001721 106.1386 253.9796 15.08843238 78853,6917.87,95.437,540.926,538.545,0.0
53805.0,STARLINK-4763,PAYLOAD,2024-02-11 07:01:23,15.08844797,0.0001798,53.2197,49.3383,104.8956,255.2235,8.5966e-05,1.08e-05,0.0,0 STARLINK-4763,1 53805U 22111AJ  24042.29263841  .00001080  00000-0  85966-4 0  9992,2 53805  53.2197  49.3383 0001798 104.8956 255.2235 15.08844797 79685,6917.866,95.437,540.975,538.487,0.0
53805.0,STARLINK-4763,PAYLOAD,2024-02-12 06:52:10,15.08844878,0.0001795,53.2194,44.8763,104.1147,256.0044,0.0001332,1.833e-05,0.0,0 STARLINK-4763,1 53805U 22111AJ  24043.28623772  .00001833  00000-0  13320-3 0  9995,2 53805  53.2194  44.8763 0001795 104.1147 256.0044 15.08844878 79021,6917.865,95.437,540.972,538.489,0.0
53805.0,STARLINK-4763,PAYLOAD,2024-02-13 03:32:12,15.08837274,0.0002075,53.2192,41.0112,124.9876,235.1311,1.1985e-05,-9.7e-07,0.0,0 STARLINK-4763,1 53805U 22111AJ  24044.14736519 -.00000097  00000-0  11985-4 0  9993,2 53805  53.2192  41.0112 0002075 124.9876 235.1311 15.08837274 79158,6917.889,95.438,541.189,538.318,0.0
53805.0,STARLINK-4763,PAYLOAD,2024-02-13 05:07:35,15.08838552,0.0002066,53.2197,40.7148,124.7089,235.4098,2.5238e-05,1.13e-06,0.0,0 STARLINK-4763,1 53805U 22111AJ  24044.21360503  .00000113  00000-0  25238-4 0  9991,2 53805  53.2197  40.7148 0002066 124.7089 235.4098 15.08838552 79977,6917.885,95.438,541.179,538.321,0.0
53805.0,STARLINK-4763,PAYLOAD,2024-02-13 16:15:17,15.08840449,0.000159,53.2193,38.635,112.5747,247.5414,5.9726e-05,6.63e-06,0.0,0 STARLINK-4763,1 53805U 22111AJ  24044.67728491  .00000663  00000-0  59726-4 0  9994,2 53805  53.2193  38.6350 0001590 112.5747 247.5414 15.08840449 80045,6917.879,95.438,540.844,538.644,0.0
53805.0,STARLINK-4763,PAYLOAD,2024-02-14 04:58:22,15.0884141,0.0001544,53.2192,36.258,105.8397,254.2765,7.1911e-05,8.57e-06,0.0,0 STARLINK-4763,1 53805U 22111AJ  24045.20720560  .00000857  00000-0  71911-4 0  9998,2 53805  53.2192  36.2580 0001544 105.8397 254.2765 15.08841410 79319,6917.876,95.437,540.809,538.673,0.0
53805.0,STARLINK-4763,PAYLOAD,2024-02-14 08:09:08,15.08851711,0.0001414,53.2186,35.6575,97.7143,262.401,0.00012439,1.693e-05,0.0,0 STARLINK-4763,1 53805U 22111AJ  24045.33967607  .00001693  00000-0  12439-3 0  9995,2 53805  53.2186  35.6575 0001414  97.7143 262.4010 15.08851711 79334,6917.845,95.437,540.688,538.731,0.0
53805.0,STARLINK-4763,PAYLOAD,2024-02-14 16:06:04,15.08846587,0.0001301,53.2183,34.1713,84.7174,275.3967,4.481e-05,4.25e-06,0.0,0 STARLINK-4763,1 53805U 22111AJ  24045.67088087  .00000425  00000-0  44810-4 0  9999,2 53805  53.2183  34.1713 0001301  84.7174 275.3967 15.08846587 79388,6917.86,95.437,540.625,538.825,0.0
53805.0,STARLINK-4763,PAYLOAD,2024-02-15 03:13:47,15.08834174,0.0001878,53.2192,32.0914,92.9097,267.211,6.7798e-05,7.91e-06,0.0,0 STARLINK-4763,1 53805U 22111AJ  24046.13457385  .00000791  00000-0  67798-4 0  9998,2 53805  53.2192  32.0914 0001878  92.9097 267.2110 15.08834174 79459,6917.898,95.438,541.062,538.464,0.0
53805.0,STARLINK-4763,PAYLOAD,2024-02-15 07:59:56,15.08835423,0.0001527,53.2193,31.1963,86.6573,273.4593,7.0883e-05,8.4e-06,0.0,0 STARLINK-4763,1 53805U 22111AJ  24046.33329341  .00000840  00000-0  70883-4 0  9994,2 53805  53.2193  31.1963 0001527  86.6573 273.4593 15.08835423 80290,6917.894,95.438,540.816,538.703,0.0
53805.0,STARLINK-4763,PAYLOAD,2024-02-15 15:56:52,15.08837355,0.0001387,53.2192,29.7128,91.028,269.0871,5.8539e-05,6.44e-06,0.0,0 STARLINK-4763,1 53805U 22111AJ  24046.66449250  .00000644  00000-0  58539-4 0  9998,2 53805  53.2192  29.7128 0001387  91.0280 269.0871 15.08837355 80346,6917.888,95.438,540.713,538.794,0.0
53805.0,STARLINK-4763,PAYLOAD,2024-02-16 04:39:56,15.08847347,0.0001339,53.2178,27.3303,85.9906,274.1239,2.0609e-05,4e-07,0.0,0 STARLINK-4763,1 53805U 22111AJ  24047.19440863  .00000040  00000-0  20609-4 0  9995,2 53805  53.2178  27.3303 0001339  85.9906 274.1239 15.08847347 79618,6917.858,95.437,540.649,538.797,0.0
53805.0,STARLINK-4763,PAYLOAD,2024-02-16 06:15:19,15.08850504,0.0001419,53.2187,27.0339,87.0226,273.0929,5.743e-05,6.26e-06,0.0,0 STARLINK-4763,1 53805U 22111AJ  24047.26064587  .00000626  00000-0  57430-4 0  9990,2 53805  53.2187  27.0339 0001419  87.0226 273.0929 15.08850504 80436,6917.848,95.437,540.695,538.732,0.0
53805.0,STARLINK-4763,PAYLOAD,2024-02-17 04:30:44,15.08837853,0.0001522,53.219,22.8721,87.0918,273.0248,0.00014036,1.946e-05,0.0,0 STARLINK-4763,1 53805U 22111AJ  24048.18801146  .00001946  00000-0  14036-3 0  9992,2 53805  53.2190  22.8721 0001522  87.0918 273.0248 15.08837853 79761,6917.887,95.438,540.805,538.699,0.0
53805.0,STARLINK-4763,PAYLOAD,2024-02-17 15:38:25,15.08846479,0.0001513,53.2191,20.7907,88.7029,271.4136,9.647e-05,1.248e-05,0.0,0 STARLINK-4763,1 53805U 22111AJ  24048.65168658  .00001248  00000-0  96470-4 0  9996,2 53805  53.2191  20.7907 0001513  88.7029 271.4136 15.08846479 80647,6917.861,95.437,540.772,538.679,0.0
53805.0,STARLINK-4763,PAYLOAD,2024-02-18 04:21:30,15.0885032,0.0001774,53.2192,18.4111,117.0538,243.0635,-8.6087e-06,-4.25e-06,0.0,0 STARLINK-4763,1 53805U 22111AJ  24049.18160563 -.00000425  00000-0 -86087-5 0  9994,2 53805  53.2192  18.4111 0001774 117.0538 243.0635 15.08850320 80727,6917.849,95.437,540.941,538.487,0.0
53805.0,STARLINK-4763,PAYLOAD,2024-02-18 21:50:45,15.08839823,0.0001846,53.2191,15.1392,101.2121,258.9079,2.7941e-05,1.57e-06,0.0,0 STARLINK-4763,1 53805U 22111AJ  24049.91025113  .00000157  00000-0  27941-4 0  9999,2 53805  53.2191  15.1392 0001846 101.2121 258.9079 15.08839823 80838,6917.881,95.438,541.023,538.469,0.0
53805.0,STARLINK-4763,PAYLOAD,2024-02-19 04:12:17,15.08845557,0.0001548,53.2174,13.9498,93.4604,266.6565,1.3767e-05,-6.9e-07,0.0,0 STARLINK-4763,1 53805U 22111AJ  24050.17520716 -.00000069  00000-0  13767-4 0  9992,2 53805  53.2174  13.9498 0001548  93.4604 266.6565 15.08845557 80061,6917.863,95.437,540.799,538.658,0.0
53805.0,STARLINK-4763,PAYLOAD,2024-02-19 07:23:04,15.08845172,0.0001617,53.2191,13.3546,99.6732,260.4443,7.1138e-05,8.44e-06,0.0,0 STARLINK-4763,1 53805U 22111AJ  24050.30768600  .00000844  00000-0  71138-4 0  9999,2 53805  53.2191  13.3546 0001617  99.6732 260.4443 15.08845172 80896,6917.865,95.437,540.848,538.611,0.0
53805.0,STARLINK-4763,PAYLOAD,2024-02-19 21:41:33,15.08832029,0.000175,53.2188,10.6794,95.7349,264.3843,-1.5175e-05,-5.3e-06,0.0,0 STARLINK-4763,1 53805U 22111AJ  24050.90385815 -.00000530  00000-0 -15175-4 0  9991,2 53805  53.2188  10.6794 0001750  95.7349 264.3843 15.08832029 80980,6917.905,95.438,540.98,538.559,0.0
53805.0,STARLINK-4763,PAYLOAD,2024-02-20 04:03:05,15.08835329,0.0001537,53.219,9.4918,88.9465,271.1703,1.8456e-05,6e-08,0.0,0 STARLINK-4763,1 53805U 22111AJ  24051.16881635  .00000006  00000-0  18456-4 0  9992,2 53805  53.2190   9.4918 0001537  88.9465 271.1703 15.08835329 80216,6917.895,95.438,540.823,538.696,0.0
53805.0,STARLINK-4763,PAYLOAD,2024-02-20 13:35:24,15.08833835,0.0001554,53.2193,7.7079,100.2485,259.8682,2.5759e-05,1.22e-06,0.0,0 STARLINK-4763,1 53805U 22111AJ  24051.56625827  .00000122  00000-0  25759-4 0  9998,2 53805  53.2193   7.7079 0001554 100.2485 259.8682 15.08833835 81082,6917.899,95.438,540.839,538.689,0.0
53805.0,STARLINK-4763,PAYLOAD,2024-02-20 21:32:20,15.08834718,0.0001363,53.2196,6.2207,88.3048,271.81,4.1924e-05,3.79e-06,0.0,0 STARLINK-4763,1 53805U 22111AJ  24051.89745902  .00000379  00000-0  41924-4 0  9997,2 53805  53.2196   6.2207 0001363  88.3048 271.8100 15.08834718 81137,6917.897,95.438,540.704,538.819,0.0
53805.0,STARLINK-4763,PAYLOAD,2024-02-21 03:53:52,15.0884533,0.0001444,53.22,5.0325,89.3817,270.7341,0.00012693,1.733e-05,0.0,0 STARLINK-4763,1 53805U 22111AJ  24052.16241101  .00001733  00000-0  12693-3 0  9995,2 53805  53.2200   5.0325 0001444  89.3817 270.7341 15.08845330 80367,6917.864,95.437,540.728,538.73,0.0
53805.0,STARLINK-4763,PAYLOAD,2024-02-21 13:26:11,15.08845127,0.000144,53.2202,3.2488,88.9692,271.1465,3.7289e-05,3.06e-06,0.0,0 STARLINK-4763,1 53805U 22111AJ  24052.55985271  .00000306  00000-0  37289-4 0  9995,2 53805  53.2202   3.2488 0001440  88.9692 271.1465 15.08845127 81234,6917.865,95.437,540.726,538.734,0.0
